start=new Date('2022-06-27T00:00:00.000Z').valueOf();
sats=[{"CENTER_NAME":"EARTH","EPHEMERIS_TYPE":"0","OBJECT_ID":"2021-038AA","MEAN_MOTION_DDOT":"0.0000000000000","FILE":"3503441","TLE_LINE2":"2 48377  53.0541 300.8373 0001428  65.9049 294.2089 15.06409540 63390","COUNTRY_CODE":"US","ELEMENT_SET_NO":"999","REF_FRAME":"TEME","LAUNCH_DATE":"2021-05-04","OBJECT_TYPE":"PAYLOAD","RCS_SIZE":"LARGE","PERIOD":"95.592","MEAN_ANOMALY":"294.2089","RA_OF_ASC_NODE":"300.8373","SEMIMAJOR_AXIS":"6925.319","REV_AT_EPOCH":"6339","BSTAR":"0.00041931000000","INCLINATION":"53.0541","MEAN_MOTION":"15.06409540","EPOCH":"2022-06-26T17:19:59.985120","OBJECT_NAME":"STARLINK-2499","APOAPSIS":"548.173","TIME_SYSTEM":"UTC","ECCENTRICITY":"0.00014280","NORAD_CAT_ID":"48377","DECAY_DATE":null,"TLE_LINE1":"1 48377U 21038AA  22177.72222205  .00005971  00000-0  41931-3 0  9997","ARG_OF_PERICENTER":"65.9049","SITE":"AFETR","PERIAPSIS":"546.195","CLASSIFICATION_TYPE":"U","MEAN_ELEMENT_THEORY":"SGP4","MEAN_MOTION_DOT":"0.00005971","GP_ID":"206925975"},{"MEAN_MOTION_DOT":"0.00002376","GP_ID":"206926203","CLASSIFICATION_TYPE":"U","MEAN_ELEMENT_THEORY":"SGP4","TLE_LINE1":"1 48378U 21038AB  22177.85122868  .00002376  00000-0  17832-3 0  9995","ARG_OF_PERICENTER":"72.0074","SITE":"AFETR","PERIAPSIS":"546.270","NORAD_CAT_ID":"48378","DECAY_DATE":null,"TIME_SYSTEM":"UTC","APOAPSIS":"548.115","ECCENTRICITY":"0.00013320","MEAN_MOTION":"15.06406773","OBJECT_NAME":"STARLINK-2526","EPOCH":"2022-06-26T20:25:46.157952","INCLINATION":"53.0559","BSTAR":"0.00017832000000","RA_OF_ASC_NODE":"300.2707","SEMIMAJOR_AXIS":"6925.328","REV_AT_EPOCH":"6341","MEAN_ANOMALY":"288.1061","PERIOD":"95.592","OBJECT_TYPE":"PAYLOAD","RCS_SIZE":"LARGE","LAUNCH_DATE":"2021-05-04","REF_FRAME":"TEME","COUNTRY_CODE":"US","TLE_LINE2":"2 48378  53.0559 300.2707 0001332  72.0074 288.1061 15.06406773 63416","FILE":"3503441","ELEMENT_SET_NO":"999","MEAN_MOTION_DDOT":"0.0000000000000","OBJECT_ID":"2021-038AB","EPHEMERIS_TYPE":"0","CENTER_NAME":"EARTH"},{"MEAN_MOTION_DOT":"0.00003899","GP_ID":"206925473","TLE_LINE1":"1 48379U 21038AC  22177.64849624  .00003899  00000-0  28046-3 0  9999","PERIAPSIS":"546.337","SITE":"AFETR","ARG_OF_PERICENTER":"70.5238","DECAY_DATE":null,"NORAD_CAT_ID":"48379","CLASSIFICATION_TYPE":"U","MEAN_ELEMENT_THEORY":"SGP4","APOAPSIS":"548.048","TIME_SYSTEM":"UTC","ECCENTRICITY":"0.00012350","MEAN_MOTION":"15.06406834","OBJECT_NAME":"STARLINK-2612","EPOCH":"2022-06-26T15:33:50.075136","RA_OF_ASC_NODE":"301.1783","REV_AT_EPOCH":"6338","SEMIMAJOR_AXIS":"6925.328","INCLINATION":"53.0545","BSTAR":"0.00028046000000","OBJECT_TYPE":"PAYLOAD","RCS_SIZE":"LARGE","MEAN_ANOMALY":"289.5884","PERIOD":"95.592","FILE":"3503441","TLE_LINE2":"2 48379  53.0545 301.1783 0001235  70.5238 289.5884 15.06406834 63385","COUNTRY_CODE":"US","ELEMENT_SET_NO":"999","LAUNCH_DATE":"2021-05-04","REF_FRAME":"TEME","OBJECT_ID":"2021-038AC","EPHEMERIS_TYPE":"0","CENTER_NAME":"EARTH","MEAN_MOTION_DDOT":"0.0000000000000"},{"MEAN_ANOMALY":"302.7701","PERIOD":"95.591","OBJECT_TYPE":"PAYLOAD","RCS_SIZE":"LARGE","INCLINATION":"53.0550","BSTAR":"0.00015086000000","RA_OF_ASC_NODE":"300.7630","REV_AT_EPOCH":"6339","SEMIMAJOR_AXIS":"6925.318","MEAN_MOTION_DDOT":"0.0000000000000","OBJECT_ID":"2021-038AD","CENTER_NAME":"EARTH","EPHEMERIS_TYPE":"0","LAUNCH_DATE":"2021-05-04","REF_FRAME":"TEME","TLE_LINE2":"2 48380  53.0550 300.7630 0001525  57.3435 302.7701 15.06410105 63396","COUNTRY_CODE":"US","FILE":"3503441","ELEMENT_SET_NO":"999","CLASSIFICATION_TYPE":"U","MEAN_ELEMENT_THEORY":"SGP4","TLE_LINE1":"1 48380U 21038AD  22177.73969738  .00001967  00000-0  15086-3 0  9994","SITE":"AFETR","PERIAPSIS":"546.126","ARG_OF_PERICENTER":"57.3435","DECAY_DATE":null,"NORAD_CAT_ID":"48380","MEAN_MOTION_DOT":"0.00001967","GP_ID":"206925225","MEAN_MOTION":"15.06410105","EPOCH":"2022-06-26T17:45:09.853632","OBJECT_NAME":"STARLINK-2614","APOAPSIS":"548.239","TIME_SYSTEM":"UTC","ECCENTRICITY":"0.00015250"},{"MEAN_MOTION_DDOT":"0.0000000000000","EPHEMERIS_TYPE":"0","CENTER_NAME":"EARTH","OBJECT_ID":"2021-038AE","REF_FRAME":"TEME","LAUNCH_DATE":"2021-05-04","TLE_LINE2":"2 48381  53.0546 300.2927 0001706  61.3013 298.8147 15.06412733 63415","COUNTRY_CODE":"US","FILE":"3503441","ELEMENT_SET_NO":"999","PERIOD":"95.591","MEAN_ANOMALY":"298.8147","OBJECT_TYPE":"PAYLOAD","RCS_SIZE":"LARGE","BSTAR":"0.00008122400000","INCLINATION":"53.0546","RA_OF_ASC_NODE":"300.2927","REV_AT_EPOCH":"6341","SEMIMAJOR_AXIS":"6925.310","MEAN_MOTION":"15.06412733","OBJECT_NAME":"STARLINK-2630","EPOCH":"2022-06-26T20:15:09.883296","APOAPSIS":"548.356","TIME_SYSTEM":"UTC","ECCENTRICITY":"0.00017060","MEAN_ELEMENT_THEORY":"SGP4","CLASSIFICATION_TYPE":"U","NORAD_CAT_ID":"48381","DECAY_DATE":null,"TLE_LINE1":"1 48381U 21038AE  22177.84386439  .00000929  00000-0  81224-4 0  9993","ARG_OF_PERICENTER":"61.3013","SITE":"AFETR","PERIAPSIS":"545.993","MEAN_MOTION_DOT":"0.00000929","GP_ID":"206926475"},{"EPOCH":"2022-06-26T16:58:45.782976","OBJECT_NAME":"STARLINK-2585","MEAN_MOTION":"15.06407115","ECCENTRICITY":"0.00016540","TIME_SYSTEM":"UTC","APOAPSIS":"548.337","CLASSIFICATION_TYPE":"U","MEAN_ELEMENT_THEORY":"SGP4","SITE":"AFETR","ARG_OF_PERICENTER":"49.2986","PERIAPSIS":"546.046","TLE_LINE1":"1 48382U 21038AF  22177.70747434  .00002867  00000-0  21126-3 0  9992","NORAD_CAT_ID":"48382","DECAY_DATE":null,"GP_ID":"206926703","MEAN_MOTION_DOT":"0.00002867","MEAN_MOTION_DDOT":"0.0000000000000","OBJECT_ID":"2021-038AF","EPHEMERIS_TYPE":"0","CENTER_NAME":"EARTH","LAUNCH_DATE":"2021-05-04","REF_FRAME":"TEME","ELEMENT_SET_NO":"999","FILE":"3503441","TLE_LINE2":"2 48382  53.0555 300.9187 0001654  49.2986 310.8147 15.06407115 63397","COUNTRY_CODE":"US","MEAN_ANOMALY":"310.8147","PERIOD":"95.592","RCS_SIZE":"LARGE","OBJECT_TYPE":"PAYLOAD","INCLINATION":"53.0555","BSTAR":"0.00021126000000","SEMIMAJOR_AXIS":"6925.327","REV_AT_EPOCH":"6339","RA_OF_ASC_NODE":"300.9187"},{"OBJECT_ID":"2021-038AG","CENTER_NAME":"EARTH","EPHEMERIS_TYPE":"0","MEAN_MOTION_DDOT":"0.0000000000000","COUNTRY_CODE":"US","TLE_LINE2":"2 48383  53.0565 300.6341 0001636  69.6966 290.4198 15.06401730 64625","FILE":"3503441","ELEMENT_SET_NO":"999","LAUNCH_DATE":"2021-05-04","REF_FRAME":"TEME","OBJECT_TYPE":"PAYLOAD","RCS_SIZE":"LARGE","MEAN_ANOMALY":"290.4198","PERIOD":"95.592","RA_OF_ASC_NODE":"300.6341","SEMIMAJOR_AXIS":"6925.343","REV_AT_EPOCH":"6462","INCLINATION":"53.0565","BSTAR":"0.00017202000000","MEAN_MOTION":"15.06401730","OBJECT_NAME":"STARLINK-2599","EPOCH":"2022-06-26T18:29:00.048480","APOAPSIS":"548.341","TIME_SYSTEM":"UTC","ECCENTRICITY":"0.00016360","TLE_LINE1":"1 48383U 21038AG  22177.77013945  .00002282  00000-0  17202-3 0  9994","SITE":"AFETR","ARG_OF_PERICENTER":"69.6966","PERIAPSIS":"546.075","NORAD_CAT_ID":"48383","DECAY_DATE":null,"MEAN_ELEMENT_THEORY":"SGP4","CLASSIFICATION_TYPE":"U","MEAN_MOTION_DOT":"0.00002282","GP_ID":"206924975"},{"RCS_SIZE":"LARGE","OBJECT_TYPE":"PAYLOAD","PERIOD":"95.592","MEAN_ANOMALY":"295.7262","REV_AT_EPOCH":"6461","SEMIMAJOR_AXIS":"6925.350","RA_OF_ASC_NODE":"300.9464","BSTAR":"0.00003216300000","INCLINATION":"53.0558","CENTER_NAME":"EARTH","EPHEMERIS_TYPE":"0","OBJECT_ID":"2021-038AH","MEAN_MOTION_DDOT":"0.0000000000000","ELEMENT_SET_NO":"999","FILE":"3503441","TLE_LINE2":"2 48384  53.0558 300.9464 0001541  64.3886 295.7262 15.06399664 64616","COUNTRY_CODE":"US","REF_FRAME":"TEME","LAUNCH_DATE":"2021-05-04","DECAY_DATE":null,"NORAD_CAT_ID":"48384","SITE":"AFETR","ARG_OF_PERICENTER":"64.3886","PERIAPSIS":"546.147","TLE_LINE1":"1 48384U 21038AH  22177.70010468  .00000198  00000-0  32163-4 0  9993","CLASSIFICATION_TYPE":"U","MEAN_ELEMENT_THEORY":"SGP4","GP_ID":"206925724","MEAN_MOTION_DOT":"0.00000198","OBJECT_NAME":"STARLINK-2601","EPOCH":"2022-06-26T16:48:09.044352","MEAN_MOTION":"15.06399664","ECCENTRICITY":"0.00015410","APOAPSIS":"548.282","TIME_SYSTEM":"UTC"},{"GP_ID":"206925976","MEAN_MOTION_DOT":"0.00000257","ARG_OF_PERICENTER":"62.0467","SITE":"AFETR","PERIAPSIS":"546.201","TLE_LINE1":"1 48385U 21038AJ  22177.76276783  .00000257  00000-0  36169-4 0  9990","DECAY_DATE":null,"NORAD_CAT_ID":"48385","CLASSIFICATION_TYPE":"U","MEAN_ELEMENT_THEORY":"SGP4","ECCENTRICITY":"0.00014800","TIME_SYSTEM":"UTC","APOAPSIS":"548.251","OBJECT_NAME":"STARLINK-2598","EPOCH":"2022-06-26T18:18:23.140512","MEAN_MOTION":"15.06395913","SEMIMAJOR_AXIS":"6925.361","REV_AT_EPOCH":"6462","RA_OF_ASC_NODE":"300.6569","INCLINATION":"53.0567","BSTAR":"0.00003616900000","RCS_SIZE":"LARGE","OBJECT_TYPE":"PAYLOAD","MEAN_ANOMALY":"298.0672","PERIOD":"95.592","ELEMENT_SET_NO":"999","TLE_LINE2":"2 48385  53.0567 300.6569 0001480  62.0467 298.0672 15.06395913 64627","FILE":"3503441","COUNTRY_CODE":"US","LAUNCH_DATE":"2021-05-04","REF_FRAME":"TEME","OBJECT_ID":"2021-038AJ","CENTER_NAME":"EARTH","EPHEMERIS_TYPE":"0","MEAN_MOTION_DDOT":"0.0000000000000"},{"CLASSIFICATION_TYPE":"U","MEAN_ELEMENT_THEORY":"SGP4","NORAD_CAT_ID":"48386","DECAY_DATE":null,"TLE_LINE1":"1 48386U 21038AK  22177.61763475  .00000424  00000-0  47383-4 0  9990","ARG_OF_PERICENTER":"62.0593","SITE":"AFETR","PERIAPSIS":"546.222","MEAN_MOTION_DOT":"0.00000424","GP_ID":"206926204","MEAN_MOTION":"15.06395990","EPOCH":"2022-06-26T14:49:23.642400","OBJECT_NAME":"STARLINK-2606","APOAPSIS":"548.230","TIME_SYSTEM":"UTC","ECCENTRICITY":"0.00014500","PERIOD":"95.592","MEAN_ANOMALY":"298.0542","OBJECT_TYPE":"PAYLOAD","RCS_SIZE":"LARGE","BSTAR":"0.00004738300000","INCLINATION":"53.0560","RA_OF_ASC_NODE":"296.3194","SEMIMAJOR_AXIS":"6925.361","REV_AT_EPOCH":"6344","MEAN_MOTION_DDOT":"0.0000000000000","CENTER_NAME":"EARTH","EPHEMERIS_TYPE":"0","OBJECT_ID":"2021-038AK","REF_FRAME":"TEME","LAUNCH_DATE":"2021-05-04","TLE_LINE2":"2 48386  53.0560 296.3194 0001450  62.0593 298.0542 15.06395990 63443","COUNTRY_CODE":"US","FILE":"3503441","ELEMENT_SET_NO":"999"}];
